H1 CPF  1  MCC 2022  6 28 15  6791 larets
H2  0304206 5557    27944 2022 06 27 23 45 00 2022 07 02 23 57 00   180 1 1  0 0 0
H9
10 0 59758 22140.000000 0       750262.180     -3157605.753      6272784.768
10 0 59758 22320.000000 0        40502.525     -2093997.126      6743953.291
10 0 59758 22500.000000 0      -641563.597      -936263.869      6969053.264
10 0 59758 22680.000000 0     -1269324.746       272575.732      6939883.652
10 0 59758 22860.000000 0     -1819285.101      1486995.377      6657431.692
10 0 59758 23040.000000 0     -2271938.441      2660657.872      6131848.609
10 0 59758 23220.000000 0     -2612463.695      3748170.319      5382120.119
10 0 59758 23400.000000 0     -2831220.760      4706844.634      4435434.278
10 0 59758 23580.000000 0     -2924029.907      5498403.909      3326249.920
10 0 59758 23760.000000 0     -2892217.085      6090562.159      2095077.326
10 0 59758 23940.000000 0     -2742419.197      6458398.668       787006.429
10 0 59758 24120.000000 0     -2486154.834      6585458.175      -549964.674
10 0 59758 24300.000000 0     -2139179.283      6464515.442     -1866738.899
10 0 59758 24480.000000 0     -1720652.421      6097948.113     -3114991.670
10 0 59758 24660.000000 0     -1252162.414      5497689.795     -4248995.939
10 0 59758 24840.000000 0      -756669.825      4684790.393     -5227319.696
10 0 59758 25020.000000 0      -257425.229      3688610.844     -6014334.682
10 0 59758 25200.000000 0       223089.650      2545696.808     -6581485.047
10 0 59758 25380.000000 0       664146.960      1298383.931     -6908272.550
10 0 59758 25560.000000 0      1047642.021        -6794.761     -6982942.586
10 0 59758 25740.000000 0      1358818.260     -1320845.831     -6802866.324
10 0 59758 25920.000000 0      1586823.409     -2594137.986     -6374613.441
10 0 59758 26100.000000 0      1725084.167     -3778252.634     -5713726.486
10 0 59758 26280.000000 0      1771488.854     -4827821.307     -4844198.428
10 0 59758 26460.000000 0      1728370.417     -5702280.520     -3797646.200
10 0 59758 26640.000000 0      1602290.032     -6367477.280     -2612205.570
10 0 59758 26820.000000 0      1403625.927     -6797059.628     -1331166.154
10 0 59758 27000.000000 0      1145986.942     -6973577.466        -1387.987
10 0 59758 27180.000000 0       845475.611     -6889233.284      1328440.145
10 0 59758 27360.000000 0       519839.334     -6546237.942      2609625.036
10 0 59758 27540.000000 0       187553.650     -5956749.263      3795298.317
10 0 59758 27720.000000 0      -133116.233     -5142394.095      4842158.583
10 0 59758 27900.000000 0      -425024.347     -4133415.277      5712052.646
10 0 59758 28080.000000 0      -672976.478     -2967488.672      6373344.120
10 0 59758 28260.000000 0      -864449.681     -1688267.208      6802021.547
10 0 59758 28440.000000 0      -990170.344      -343727.288      6982518.824
10 0 59758 28620.000000 0     -1044531.653      1015625.972      6908247.867
10 0 59758 28800.000000 0     -1025834.178      2338641.044      6581827.704
10 0 59758 28980.000000 0      -936339.578      3575428.174      6015006.704
10 0 59758 29160.000000 0      -782138.812      4679236.544      5228278.625
10 0 59758 29340.000000 0      -572837.548      5608241.310      4250194.680
10 0 59758 29520.000000 0      -321069.043      6327176.122      3116377.195
10 0 59758 29700.000000 0       -41854.032      6808740.968      1868259.289
10 0 59758 29880.000000 0       248168.481      7034721.594       551570.103
10 0 59758 30060.000000 0       531606.161      6996738.499      -785371.402
10 0 59758 30240.000000 0       791224.634      6696590.625     -2093481.062
10 0 59758 30420.000000 0      1010851.442      6146166.634     -3324769.397
10 0 59758 30600.000000 0      1176227.841      5366935.759     -4434148.265
10 0 59758 30780.000000 0      1275767.503      4389046.141     -5381106.649
10 0 59758 30960.000000 0      1301182.269      3250082.893     -6131182.520
10 0 59758 31140.000000 0      1247944.736      1993557.429     -6657181.385
10 0 59758 31320.000000 0      1115569.823       667201.575     -6940107.315
10 0 59758 31500.000000 0       907707.993      -678858.413     -6969796.058
10 0 59758 31680.000000 0       632046.777     -1993988.642     -6745241.484
10 0 59758 31860.000000 0       300025.944     -3228927.973     -6274615.554
10 0 59758 32040.000000 0       -73624.714     -4337615.618     -5574994.074
10 0 59758 32220.000000 0      -471511.976     -5278912.987     -4671776.812
10 0 59758 32400.000000 0      -874347.744     -6018157.231     -3597814.559
10 0 59758 32580.000000 0     -1261833.702     -6528488.308     -2392255.053
10 0 59758 32760.000000 0     -1613623.039     -6791886.453     -1099136.827
10 0 59758 32940.000000 0     -1910313.840     -6799866.800       234226.962
10 0 59758 33120.000000 0     -2134423.585     -6553784.764      1559011.820
10 0 59758 33300.000000 0     -2271294.525     -6064732.040      2826713.726
10 0 59758 33480.000000 0     -2309879.343     -5353026.719      3990967.089
10 0 59758 33660.000000 0     -2243364.788     -4447327.896      5009263.637
10 0 59758 33840.000000 0     -2069606.481     -3383430.761      5844501.701
10 0 59758 34020.000000 0     -1791356.572     -2202802.077      6466312.849
10 0 59758 34200.000000 0     -1416272.450      -950931.834      6852120.949
10 0 59758 34380.000000 0      -956714.389       324428.900      6987916.122
10 0 59758 34560.000000 0      -429342.385      1575080.304      6868728.539
10 0 59758 34740.000000 0       145481.473      2754177.854      6498804.162
10 0 59758 34920.000000 0       744468.571      3817975.446      5891472.531
10 0 59758 35100.000000 0      1342329.863      4727452.588      5068708.852
10 0 59758 35280.000000 0      1912824.557      5449775.243      4060392.329
10 0 59758 35460.000000 0      2429894.792      5959532.192      2903271.128
10 0 59758 35640.000000 0      2868841.081      6239698.413      1639654.005
10 0 59758 35820.000000 0      3207479.113      6282266.261       315854.089
10 0 59758 36000.000000 0      3427215.211      6088498.418     -1019543.741
10 0 59758 36180.000000 0      3513986.345      5668792.116     -2317516.607
10 0 59758 36360.000000 0      3459013.635      5042158.565     -3530458.958
10 0 59758 36540.000000 0      3259325.847      4235342.266     -4613974.944
10 0 59758 36720.000000 0      2918025.786      3281633.585     -5528521.172
10 0 59758 36900.000000 0      2444294.033      2219444.678     -6240837.397
10 0 59758 37080.000000 0      1853135.028      1090719.469     -6725116.177
10 0 59758 37260.000000 0      1164882.651       -60744.452     -6963880.634
10 0 59758 37440.000000 0       404488.367     -1190993.776     -6948564.420
10 0 59758 37620.000000 0      -399386.935     -2257582.273     -6679784.045
10 0 59758 37800.000000 0     -1215442.134     -3221142.698     -6167308.754
10 0 59758 37980.000000 0     -2010939.241     -4046831.050     -5429729.652
10 0 59758 38160.000000 0     -2753001.214     -4705594.781     -4493829.578
10 0 59758 38340.000000 0     -3409965.647     -5175226.033     -3393660.726
10 0 59758 38520.000000 0     -3952737.356     -5441149.950     -2169342.136
10 0 59758 38700.000000 0     -4356079.890     -5496911.645      -865613.050
10 0 59758 38880.000000 0     -4599781.890     -5344332.926       469813.582
10 0 59758 39060.000000 0     -4669633.359     -4993324.271      1788032.457
10 0 59758 39240.000000 0     -4558157.958     -4461355.335      3040783.878
10 0 59758 39420.000000 0     -4265061.194     -3772611.786      4182259.510
10 0 59758 39600.000000 0     -3797376.035     -2956888.741      5170797.239
10 0 59758 39780.000000 0     -3169300.858     -2048279.566      5970393.658
10 0 59758 39960.000000 0     -2401747.926     -1083734.868      6551982.774
10 0 59758 40140.000000 0     -1521623.187      -101551.413      6894452.662
10 0 59758 40320.000000 0      -560865.421       860146.545      6985364.438
10 0 59758 40500.000000 0       444709.218      1764870.468      6821372.026
10 0 59758 40680.000000 0      1456728.283      2579139.707      6408343.361
10 0 59758 40860.000000 0      2435711.516      3273715.672      5761172.935
10 0 59758 41040.000000 0      3342601.191      3824661.811      4903292.743
10 0 59758 41220.000000 0      4140327.624      4214195.598      3865877.443
10 0 59758 41400.000000 0      4795345.299      4431295.797      2686759.703
10 0 59758 41580.000000 0      5279081.727      4472038.401      1409072.209
10 0 59758 41760.000000 0      5569215.321      4339632.794        79660.212
10 0 59758 41940.000000 0      5650717.513      4044152.222     -1252676.066
10 0 59758 42120.000000 0      5516593.234      3601967.136     -2539029.165
10 0 59758 42300.000000 0      5168283.324      3034911.825     -3732233.707
10 0 59758 42480.000000 0      4615709.860      2369233.744     -4788635.159
10 0 59758 42660.000000 0      3876963.767      1634379.282     -5669702.474
10 0 59758 42840.000000 0      2977658.282       861682.145     -6343413.451
10 0 59758 43020.000000 0      1949987.587        83024.378     -6785374.411
10 0 59758 43200.000000 0       831538.724      -670472.493     -6979646.414
10 0 59758 43380.000000 0      -336095.475     -1369678.351     -6919272.625
10 0 59758 43560.000000 0     -1508857.377     -1988563.880     -6606496.383
10 0 59758 43740.000000 0     -2641868.905     -2505156.827     -6052678.254
10 0 59758 43920.000000 0     -3691131.461     -2902318.577     -5277909.847
10 0 59758 44100.000000 0     -4615232.123     -3168319.502     -4310333.990
10 0 59758 44280.000000 0     -5376998.702     -3297191.503     -3185170.046
10 0 59758 44460.000000 0     -5945031.216     -3288838.560     -1943466.225
10 0 59758 44640.000000 0     -6295039.411     -3148897.645      -630612.075
10 0 59758 44820.000000 0     -6410915.388     -2888352.146       705336.382
10 0 59758 45000.000000 0     -6285483.279     -2522914.154      2015452.557
99
